[{"OBJECT_NAME":"OBJECT H","OBJECT_ID":"2025-055H","EPOCH":"2026-03-09T23:29:50.051328","MEAN_MOTION":15.30330066,"ECCENTRICITY":0.00075967,"INCLINATION":97.636,"RA_OF_ASC_NODE":211.9572,"ARG_OF_PERICENTER":140.4354,"MEAN_ANOMALY":219.7441,"EPHEMERIS_TYPE":0,"CLASSIFICATION_TYPE":"U","NORAD_CAT_ID":63298,"ELEMENT_SET_NO":999,"REV_AT_EPOCH":5423,"BSTAR":0.0015582864,"MEAN_MOTION_DOT":0.00045901,"MEAN_MOTION_DDOT":0},{"OBJECT_NAME":"STARLINK-35148","OBJECT_ID":"2025-221X","EPOCH":"2026-03-09T10:41:59.616960","MEAN_MOTION":15.30198042,"ECCENTRICITY":0.00013784,"INCLINATION":53.1599,"RA_OF_ASC_NODE":89.6461,"ARG_OF_PERICENTER":71.1227,"MEAN_ANOMALY":288.9923,"EPHEMERIS_TYPE":0,"CLASSIFICATION_TYPE":"U","NORAD_CAT_ID":65844,"ELEMENT_SET_NO":999,"REV_AT_EPOCH":2469,"BSTAR":0.0010496373,"MEAN_MOTION_DOT":0.00030855,"MEAN_MOTION_DDOT":0}]
